APRIZESAT 2             
1 28366U 04025A   26199.24792882  .00000084  00000+0  39072-4 0  9991
2 28366  98.1045   3.4743 0106126 155.6863 204.9385 14.38048428156101
SAUDICOMSAT 1           
1 28369U 04025D   26199.84544747  .00000122  00000+0  39243-4 0  9998
2 28369  98.5778 210.8324 0030894 287.2737  72.5079 14.55494941168735
SAUDICOMSAT 2           
1 28370U 04025E   26199.86806072  .00000085  00000+0  34085-4 0  9991
2 28370  98.6643 213.0101 0055863 162.5924 197.7201 14.49995399164697
APRIZESAT 1             
1 28372U 04025G   26199.86046014  .00000099  00000+0  36316-4 0  9999
2 28372  98.6310 211.4486 0045672  59.8213 300.7494 14.51793203166509
NANOSAT-1               
1 28493U 04049B   26199.87336966  .00000454  00000+0  67072-4 0  9996
2 28493  98.2316 337.3169 0004074 172.5204 187.6069 14.80214656160130
SAUDICOMSAT 7           
1 31119U 07012C   26199.91626447  .00000246  00000+0  53227-4 0  9995
2 31119  98.3801 174.7011 0057024  96.8961 263.8734 14.66138770 27087
SAUDICOMSAT 6           
1 31121U 07012E   26199.90231090  .00000153  00000+0  39404-4 0  9991
2 31121  98.4120 168.0137 0070676 227.3638 132.1592 14.62586170 24826
SAUDICOMSAT 5           
1 31124U 07012H   26199.91338012  .00000296  00000+0  59767-4 0  9999
2 31124  98.3513 175.4391 0048001  27.3228 333.0485 14.68194782 28252
SAUDICOMSAT 3           
1 31125U 07012J   26199.88685062  .00000334  00000+0  62979-4 0  9998
2 31125  98.3167 175.9582 0038040 313.3086  46.4949 14.70752710 29487
SAUDICOMSAT 4           
1 31127U 07012L   26199.85622130  .00000189  00000+0  44488-4 0  9997
2 31127  98.4006 173.0766 0063814 158.3527 202.0394 14.64537131 25929
APRIZESAT 4             
1 35684U 09041D   26199.74730276  .00000287  00000+0  41061-4 0  9995
2 35684  98.1401 275.6954 0042456 217.7364 142.0870 14.83916474916049
APRIZESAT 3             
1 35686U 09041F   26199.86357383  .00000257  00000+0  27875-4 0  9998
2 35686  98.2107 354.6134 0060713 323.6550  36.0553 14.96315589921111
S-NET D                 
1 43186U 18014G   26199.73136883  .00002292  00000+0  11964-3 0  9990
2 43186  97.5324 104.3260 0006236 269.3147  90.7371 15.16935449463545
S-NET B                 
1 43187U 18014H   26199.67747863  .00002444  00000+0  12744-3 0  9996
2 43187  97.5330 104.2599 0006844 263.5777  96.4677 15.16904579463538
S-NET A                 
1 43188U 18014J   26199.73007260  .00002262  00000+0  11808-3 0  9992
2 43188  97.5339 104.5271 0006757 264.3439  95.7023 15.16943714463547
S-NET C                 
1 43189U 18014K   26199.68152536  .00002440  00000+0  12723-3 0  9999
2 43189  97.5357 104.5583 0008127 255.5653 104.4678 15.16895682462089
SALSAT                  
1 46495U 20068K   26199.01462697  .00004061  00000+0  14177-3 0  9999
2 46495  97.8861 203.9671 0009495 182.8082 177.3106 15.30195257320078
OOV-CUBE (TUBSAT-30)    
1 60240U 24128F   26199.85990322  .00000929  00000+0  83561-4 0  9990
2 60240  61.9941 115.1222 0040652 140.8126 219.5921 15.02882322110876
LPNTSAT-001 (IOD-1)     
1 68408U 26065A   26199.90234535  .00001249  00000+0  63360-4 0  9990
2 68408  97.3975  79.7370 0014685 251.9820 107.9814 15.18678997 17078
CHUANG XIN 26 (CX-26)   
1 69972U 26158A   26199.63330041 -.00000027  00000+0  56359-4 0  9993
2 69972  49.9834 265.9089 0004914 311.3503  48.6987 14.25123885  1197
